[
  {
    "COMMENT": "GENERATED VIA SPACETRACK.ORG API",
    "ORIGINATOR": "18 SPCS",
    "NORAD_CAT_ID": "20436",
    "OBJECT_NAME": "SPOT 2",
    "OBJECT_TYPE": "PAYLOAD",
    "CLASSIFICATION_TYPE": "U",
    "INTLDES": "90005A",
    "EPOCH": "2023-07-30 04:49:39",
    "EPOCH_MICROSECONDS": "169056",
    "MEAN_MOTION": "14.68243353",
    "ECCENTRICITY": "0.0141818",
    "INCLINATION": "98.6614",
    "RA_OF_ASC_NODE": "285.0208",
    "ARG_OF_PERICENTER": "149.2042",
    "MEAN_ANOMALY": "211.7578",
    "EPHEMERIS_TYPE": "0",
    "ELEMENT_SET_NO": "999",
    "REV_AT_EPOCH": "76050",
    "BSTAR": "0.0003322",
    "MEAN_MOTION_DOT": "0.00002167",
    "MEAN_MOTION_DDOT": "0",
    "FILE": "3966881",
    "TLE_LINE0": "0 SPOT 2",
    "TLE_LINE1": "1 20436U 90005A   23211.20114779  .00002167  00000-0  33220-3 0  9998",
    "TLE_LINE2": "2 20436  98.6614 285.0208 0141818 149.2042 211.7578 14.68243353760509",
    "OBJECT_ID": "1990-005A",
    "OBJECT_NUMBER": "20436",
    "SEMIMAJOR_AXIS": "7044.819",
    "PERIOD": "98.076",
    "APOGEE": "766.592",
    "PERIGEE": "566.775",
    "DECAYED": "0"
  },
  {
    "COMMENT": "GENERATED VIA SPACETRACK.ORG API",
    "ORIGINATOR": "18 SPCS",
    "NORAD_CAT_ID": "20436",
    "OBJECT_NAME": "SPOT 2",
    "OBJECT_TYPE": "PAYLOAD",
    "CLASSIFICATION_TYPE": "U",
    "INTLDES": "90005A",
    "EPOCH": "2023-07-31 06:59:49",
    "EPOCH_MICROSECONDS": "233120",
    "MEAN_MOTION": "14.68249187",
    "ECCENTRICITY": "0.014186",
    "INCLINATION": "98.6614",
    "RA_OF_ASC_NODE": "286.175",
    "ARG_OF_PERICENTER": "145.8258",
    "MEAN_ANOMALY": "215.2177",
    "EPHEMERIS_TYPE": "0",
    "ELEMENT_SET_NO": "999",
    "REV_AT_EPOCH": "76066",
    "BSTAR": "0.0003643",
    "MEAN_MOTION_DOT": "0.00002383",
    "MEAN_MOTION_DDOT": "0",
    "FILE": "3968031",
    "TLE_LINE0": "0 SPOT 2",
    "TLE_LINE1": "1 20436U 90005A   23212.29154205  .00002383  00000-0  36430-3 0  9992",
    "TLE_LINE2": "2 20436  98.6614 286.1750 0141860 145.8258 215.2177 14.68249187760663",
    "OBJECT_ID": "1990-005A",
    "OBJECT_NUMBER": "20436",
    "SEMIMAJOR_AXIS": "7044.800",
    "PERIOD": "98.076",
    "APOGEE": "766.602",
    "PERIGEE": "566.727",
    "DECAYED": "0"
  },
  {
    "COMMENT": "GENERATED VIA SPACETRACK.ORG API",
    "ORIGINATOR": "18 SPCS",
    "NORAD_CAT_ID": "20436",
    "OBJECT_NAME": "SPOT 2",
    "OBJECT_TYPE": "PAYLOAD",
    "CLASSIFICATION_TYPE": "U",
    "INTLDES": "90005A",
    "EPOCH": "2023-08-01 18:58:47",
    "EPOCH_MICROSECONDS": "461440",
    "MEAN_MOTION": "14.68256612",
    "ECCENTRICITY": "0.014191",
    "INCLINATION": "98.6614",
    "RA_OF_ASC_NODE": "287.7621",
    "ARG_OF_PERICENTER": "141.1716",
    "MEAN_ANOMALY": "219.9787",
    "EPHEMERIS_TYPE": "0",
    "ELEMENT_SET_NO": "999",
    "REV_AT_EPOCH": "76088",
    "BSTAR": "0.00038475",
    "MEAN_MOTION_DOT": "0.00002522",
    "MEAN_MOTION_DDOT": "0",
    "FILE": "3969076",
    "TLE_LINE0": "0 SPOT 2",
    "TLE_LINE1": "1 20436U 90005A   23213.79082710  .00002522  00000-0  38475-3 0  9995",
    "TLE_LINE2": "2 20436  98.6614 287.7621 0141910 141.1716 219.9787 14.68256612760884",
    "OBJECT_ID": "1990-005A",
    "OBJECT_NUMBER": "20436",
    "SEMIMAJOR_AXIS": "7044.776",
    "PERIOD": "98.075",
    "APOGEE": "766.614",
    "PERIGEE": "566.669",
    "DECAYED": "0"
  },
  {
    "COMMENT": "GENERATED VIA SPACETRACK.ORG API",
    "ORIGINATOR": "18 SPCS",
    "NORAD_CAT_ID": "20436",
    "OBJECT_NAME": "SPOT 2",
    "OBJECT_TYPE": "PAYLOAD",
    "CLASSIFICATION_TYPE": "U",
    "INTLDES": "90005A",
    "EPOCH": "2023-08-02 19:30:48",
    "EPOCH_MICROSECONDS": "460896",
    "MEAN_MOTION": "14.68262918",
    "ECCENTRICITY": "0.0141932",
    "INCLINATION": "98.6612",
    "RA_OF_ASC_NODE": "288.8441",
    "ARG_OF_PERICENTER": "138.0025",
    "MEAN_ANOMALY": "223.2165",
    "EPHEMERIS_TYPE": "0",
    "ELEMENT_SET_NO": "999",
    "REV_AT_EPOCH": "76103",
    "BSTAR": "0.00042474",
    "MEAN_MOTION_DOT": "0.00002791",
    "MEAN_MOTION_DDOT": "0",
    "FILE": "3969923",
    "TLE_LINE0": "0 SPOT 2",
    "TLE_LINE1": "1 20436U 90005A   23214.81306089  .00002791  00000-0  42474-3 0  9999",
    "TLE_LINE2": "2 20436  98.6612 288.8441 0141932 138.0025 223.2165 14.68262918761038",
    "OBJECT_ID": "1990-005A",
    "OBJECT_NUMBER": "20436",
    "SEMIMAJOR_AXIS": "7044.756",
    "PERIOD": "98.075",
    "APOGEE": "766.609",
    "PERIGEE": "566.633",
    "DECAYED": "0"
  },
  {
    "COMMENT": "GENERATED VIA SPACETRACK.ORG API",
    "ORIGINATOR": "18 SPCS",
    "NORAD_CAT_ID": "20436",
    "OBJECT_NAME": "SPOT 2",
    "OBJECT_TYPE": "PAYLOAD",
    "CLASSIFICATION_TYPE": "U",
    "INTLDES": "90005A",
    "EPOCH": "2023-08-04 02:35:21",
    "EPOCH_MICROSECONDS": "257952",
    "MEAN_MOTION": "14.68269175",
    "ECCENTRICITY": "0.0141972",
    "INCLINATION": "98.6608",
    "RA_OF_ASC_NODE": "290.2146",
    "ARG_OF_PERICENTER": "133.9858",
    "MEAN_ANOMALY": "227.3155",
    "EPHEMERIS_TYPE": "0",
    "ELEMENT_SET_NO": "999",
    "REV_AT_EPOCH": "76122",
    "BSTAR": "0.00040516",
    "MEAN_MOTION_DOT": "0.0000266",
    "MEAN_MOTION_DDOT": "0",
    "FILE": "3971170",
    "TLE_LINE0": "0 SPOT 2",
    "TLE_LINE1": "1 20436U 90005A   23216.10788493  .00002660  00000-0  40516-3 0  9996",
    "TLE_LINE2": "2 20436  98.6608 290.2146 0141972 133.9858 227.3155 14.68269175761221",
    "OBJECT_ID": "1990-005A",
    "OBJECT_NUMBER": "20436",
    "SEMIMAJOR_AXIS": "7044.736",
    "PERIOD": "98.075",
    "APOGEE": "766.616",
    "PERIGEE": "566.585",
    "DECAYED": "0"
  },
  {
    "COMMENT": "GENERATED VIA SPACETRACK.ORG API",
    "ORIGINATOR": "18 SPCS",
    "NORAD_CAT_ID": "20436",
    "OBJECT_NAME": "SPOT 2",
    "OBJECT_TYPE": "PAYLOAD",
    "CLASSIFICATION_TYPE": "U",
    "INTLDES": "90005A",
    "EPOCH": "2023-08-05 04:45:29",
    "EPOCH_MICROSECONDS": "449728",
    "MEAN_MOTION": "14.68274531",
    "ECCENTRICITY": "0.0141992",
    "INCLINATION": "98.6605",
    "RA_OF_ASC_NODE": "291.3687",
    "ARG_OF_PERICENTER": "130.6191",
    "MEAN_ANOMALY": "230.7465",
    "EPHEMERIS_TYPE": "0",
    "ELEMENT_SET_NO": "999",
    "REV_AT_EPOCH": "76138",
    "BSTAR": "0.00039562",
    "MEAN_MOTION_DOT": "0.00002597",
    "MEAN_MOTION_DDOT": "0",
    "FILE": "3971967",
    "TLE_LINE0": "0 SPOT 2",
    "TLE_LINE1": "1 20436U 90005A   23217.19825752  .00002597  00000-0  39562-3 0  9994",
    "TLE_LINE2": "2 20436  98.6605 291.3687 0141992 130.6191 230.7465 14.68274531761387",
    "OBJECT_ID": "1990-005A",
    "OBJECT_NUMBER": "20436",
    "SEMIMAJOR_AXIS": "7044.719",
    "PERIOD": "98.074",
    "APOGEE": "766.613",
    "PERIGEE": "566.554",
    "DECAYED": "0"
  },
  {
    "COMMENT": "GENERATED VIA SPACETRACK.ORG API",
    "ORIGINATOR": "18 SPCS",
    "NORAD_CAT_ID": "20436",
    "OBJECT_NAME": "SPOT 2",
    "OBJECT_TYPE": "PAYLOAD",
    "CLASSIFICATION_TYPE": "U",
    "INTLDES": "90005A",
    "EPOCH": "2023-08-06 11:50:01",
    "EPOCH_MICROSECONDS": "99392",
    "MEAN_MOTION": "14.68280856",
    "ECCENTRICITY": "0.0142053",
    "INCLINATION": "98.6603",
    "RA_OF_ASC_NODE": "292.7394",
    "ARG_OF_PERICENTER": "126.6008",
    "MEAN_ANOMALY": "234.8361",
    "EPHEMERIS_TYPE": "0",
    "ELEMENT_SET_NO": "999",
    "REV_AT_EPOCH": "76157",
    "BSTAR": "0.00037314",
    "MEAN_MOTION_DOT": "0.00002446",
    "MEAN_MOTION_DDOT": "0",
    "FILE": "3973186",
    "TLE_LINE0": "0 SPOT 2",
    "TLE_LINE1": "1 20436U 90005A   23218.49306828  .00002446  00000-0  37314-3 0  9992",
    "TLE_LINE2": "2 20436  98.6603 292.7394 0142053 126.6008 234.8361 14.68280856761574",
    "OBJECT_ID": "1990-005A",
    "OBJECT_NUMBER": "20436",
    "SEMIMAJOR_AXIS": "7044.699",
    "PERIOD": "98.074",
    "APOGEE": "766.636",
    "PERIGEE": "566.492",
    "DECAYED": "0"
  },
  {
    "COMMENT": "GENERATED VIA SPACETRACK.ORG API",
    "ORIGINATOR": "18 SPCS",
    "NORAD_CAT_ID": "20436",
    "OBJECT_NAME": "SPOT 2",
    "OBJECT_TYPE": "PAYLOAD",
    "CLASSIFICATION_TYPE": "U",
    "INTLDES": "90005A",
    "EPOCH": "2023-08-07 17:16:24",
    "EPOCH_MICROSECONDS": "234816",
    "MEAN_MOTION": "14.68286875",
    "ECCENTRICITY": "0.0142062",
    "INCLINATION": "98.6601",
    "RA_OF_ASC_NODE": "294.0377",
    "ARG_OF_PERICENTER": "122.8062",
    "MEAN_ANOMALY": "238.6916",
    "EPHEMERIS_TYPE": "0",
    "ELEMENT_SET_NO": "999",
    "REV_AT_EPOCH": "76175",
    "BSTAR": "0.00036983",
    "MEAN_MOTION_DOT": "0.00002424",
    "MEAN_MOTION_DDOT": "0",
    "FILE": "3974345",
    "TLE_LINE0": "0 SPOT 2",
    "TLE_LINE1": "1 20436U 90005A   23219.71972494  .00002424  00000-0  36983-3 0  9993",
    "TLE_LINE2": "2 20436  98.6601 294.0377 0142062 122.8062 238.6916 14.68286875761751",
    "OBJECT_ID": "1990-005A",
    "OBJECT_NUMBER": "20436",
    "SEMIMAJOR_AXIS": "7044.679",
    "PERIOD": "98.073",
    "APOGEE": "766.622",
    "PERIGEE": "566.466",
    "DECAYED": "0"
  },
  {
    "COMMENT": "GENERATED VIA SPACETRACK.ORG API",
    "ORIGINATOR": "18 SPCS",
    "NORAD_CAT_ID": "20436",
    "OBJECT_NAME": "SPOT 2",
    "OBJECT_TYPE": "PAYLOAD",
    "CLASSIFICATION_TYPE": "U",
    "INTLDES": "90005A",
    "EPOCH": "2023-08-09 05:15:18",
    "EPOCH_MICROSECONDS": "378144",
    "MEAN_MOTION": "14.68294827",
    "ECCENTRICITY": "0.0142081",
    "INCLINATION": "98.6601",
    "RA_OF_ASC_NODE": "295.6245",
    "ARG_OF_PERICENTER": "118.1577",
    "MEAN_ANOMALY": "243.4064",
    "EPHEMERIS_TYPE": "0",
    "ELEMENT_SET_NO": "999",
    "REV_AT_EPOCH": "76197",
    "BSTAR": "0.00037706",
    "MEAN_MOTION_DOT": "0.00002474",
    "MEAN_MOTION_DDOT": "0",
    "FILE": "3975632",
    "TLE_LINE0": "0 SPOT 2",
    "TLE_LINE1": "1 20436U 90005A   23221.21896271  .00002474  00000-0  37706-3 0  9998",
    "TLE_LINE2": "2 20436  98.6601 295.6245 0142081 118.1577 243.4064 14.68294827761970",
    "OBJECT_ID": "1990-005A",
    "OBJECT_NUMBER": "20436",
    "SEMIMAJOR_AXIS": "7044.654",
    "PERIOD": "98.073",
    "APOGEE": "766.610",
    "PERIGEE": "566.428",
    "DECAYED": "0"
  }
]